NORAD_CAT_ID,OBJECT_NAME,OBJECT_TYPE,EPOCH,MEAN_MOTION,ECCENTRICITY,INCLINATION,RA_OF_ASC_NODE,ARG_OF_PERICENTER,MEAN_ANOMALY,BSTAR,MEAN_MOTION_DOT,MEAN_MOTION_DDOT,TLE_LINE0,TLE_LINE1,TLE_LINE2,SEMIMAJOR_AXIS,PERIOD,APOGEE,PERIGEE,DECAYED
52666.0,STARLINK-4079,PAYLOAD,2023-01-27 06:15:39,15.08842749,0.0001283,53.2165,220.2415,81.4601,278.6536,5.4238000000000005e-05,5.75e-06,0.0,0 STARLINK-4079,1 52666U 22053L   23027.26087589  .00000575  00000-0  54238-4 0  9999,2 52666  53.2165 220.2415 0001283  81.4601 278.6536 15.08842749 39332,6917.871999999999,95.437,540.625,538.849,0.0
52666.0,STARLINK-4079,PAYLOAD,2023-01-27 20:34:07,15.08841165,0.0001203,53.216,217.564,94.8867,265.2262,1.5340999999999998e-05,-4.4e-07,0.0,0 STARLINK-4079,1 52666U 22053L   23027.85703652 -.00000044  00000-0  15341-4 0  9994,2 52666  53.2160 217.5640 0001203  94.8867 265.2262 15.08841165 39429,6917.877,95.437,540.5740000000001,538.91,0.0
52666.0,STARLINK-4079,PAYLOAD,2023-01-28 12:27:59,15.08840249,0.0001181,53.2156,214.5905,94.4666,265.6461,-5.5767e-06,-3.77e-06,0.0,0 STARLINK-4079,1 52666U 22053L   23028.51943626 -.00000377  00000-0 -55767-5 0  9992,2 52666  53.2156 214.5905 0001181  94.4666 265.6461 15.08840249 39521,6917.88,95.438,540.562,538.928,0.0
52666.0,STARLINK-4079,PAYLOAD,2023-01-28 18:49:31,15.08843518,0.0001183,53.2152,213.4019,90.356,269.7568,1.7936e-05,-2e-08,0.0,0 STARLINK-4079,1 52666U 22053L   23028.78439300 -.00000002  00000-0  17936-4 0  9999,2 52666  53.2152 213.4019 0001183  90.3560 269.7568 15.08843518 39560,6917.87,95.437,540.553,538.916,0.0
52666.0,STARLINK-4079,PAYLOAD,2023-01-28 23:35:40,15.08845912,0.0001178,53.2153,212.5098,90.383,269.7297,3.6257e-05,2.89e-06,0.0,0 STARLINK-4079,1 52666U 22053L   23028.98311016  .00000289  00000-0  36257-4 0  9997,2 52666  53.2153 212.5098 0001178  90.3830 269.7297 15.08845912 39594,6917.862,95.437,540.542,538.912,0.0
52666.0,STARLINK-4079,PAYLOAD,2023-01-29 18:40:19,15.08835238,0.0001117,53.2152,208.9417,88.2198,271.8922,2.053e-05,3.9e-07,0.0,0 STARLINK-4079,1 52666U 22053L   23029.77799818  .00000039  00000-0  20530-4 0  9995,2 52666  53.2152 208.9417 0001117  88.2198 271.8922 15.08835238 39716,6917.895,95.438,540.533,538.987,0.0
52666.0,STARLINK-4079,PAYLOAD,2023-01-29 21:51:05,15.08837481,0.0001166,53.2152,208.3468,89.0334,271.0792,8.6751e-06,-1.5e-06,0.0,0 STARLINK-4079,1 52666U 22053L   23029.91047726 -.00000150  00000-0  86751-5 0  9998,2 52666  53.2152 208.3468 0001166  89.0334 271.0792 15.08837481 39732,6917.888,95.438,540.56,538.946,0.0
52666.0,STARLINK-4079,PAYLOAD,2023-01-30 12:09:33,15.08833778,0.0001151,53.2153,205.6706,88.5596,271.5528,4.4405e-06,-2.17e-06,0.0,0 STARLINK-4079,1 52666U 22053L   23030.50664112 -.00000217  00000-0  44405-5 0  9993,2 52666  53.2153 205.6706 0001151  88.5596 271.5528 15.08833778 39823,6917.899,95.438,540.561,538.968,0.0
52666.0,STARLINK-4079,PAYLOAD,2023-01-31 10:24:57,15.08838584,0.0001164,53.2152,201.5072,87.4119,272.7006,-1.6101e-05,-5.44e-06,0.0,0 STARLINK-4079,1 52666U 22053L   23031.43400013 -.00000544  00000-0 -16101-4 0  9999,2 52666  53.2152 201.5072 0001164  87.4119 272.7006 15.08838584 39965,6917.885,95.438,540.555,538.944,0.0
52666.0,STARLINK-4079,PAYLOAD,2023-01-31 18:21:53,15.08838119,0.0001167,53.2153,200.0205,89.1015,271.0111,6.2297e-05,7.04e-06,0.0,0 STARLINK-4079,1 52666U 22053L   23031.76519898  .00000704  00000-0  62297-4 0  9990,2 52666  53.2153 200.0205 0001167  89.1015 271.0111 15.08838119 40016,6917.886,95.438,540.558,538.944,0.0
52666.0,STARLINK-4079,PAYLOAD,2023-02-01 11:51:08,15.08835551,0.000113,53.2166,196.7502,97.084,263.0281,3.0413e-05,1.96e-06,0.0,0 STARLINK-4079,1 52666U 22053L   23032.49384289  .00000196  00000-0  30413-4 0  9995,2 52666  53.2166 196.7502 0001130  97.0840 263.0281 15.08835551 40123,6917.894,95.438,540.541,538.977,0.0
52666.0,STARLINK-4079,PAYLOAD,2023-02-02 10:06:31,15.08840296,0.0001143,53.217,192.5874,97.9071,262.2051,3.6135e-05,2.87e-06,0.0,0 STARLINK-4079,1 52666U 22053L   23033.42120091  .00000287  00000-0  36135-4 0  9996,2 52666  53.2170 192.5874 0001143  97.9071 262.2051 15.08840296 40266,6917.879,95.438,540.535,538.954,0.0
52666.0,STARLINK-4079,PAYLOAD,2023-02-03 03:35:46,15.08837873,0.0001253,53.2144,189.3137,86.2238,273.8898,3.4832e-05,2.66e-06,0.0,0 STARLINK-4079,1 52666U 22053L   23034.14984306  .00000266  00000-0  34832-4 0  9992,2 52666  53.2144 189.3137 0001253  86.2238 273.8898 15.08837873 40377,6917.887,95.438,540.619,538.885,0.0
52666.0,STARLINK-4079,PAYLOAD,2023-02-03 09:57:19,15.0883423,0.0001255,53.2138,188.1242,88.4506,271.663,1.7022e-05,-1.7e-07,0.0,0 STARLINK-4079,1 52666U 22053L   23034.41480650 -.00000017  00000-0  17022-4 0  9992,2 52666  53.2138 188.1242 0001255  88.4506 271.6630 15.08834230 40417,6917.898,95.438,540.631,538.895,0.0
52666.0,STARLINK-4079,PAYLOAD,2023-02-03 19:29:38,15.0883561,0.0001279,53.2146,186.3404,86.9239,273.1899,1.0594e-05,-1.19e-06,0.0,0 STARLINK-4079,1 52666U 22053L   23034.81224712 -.00000119  00000-0  10594-4 0  9991,2 52666  53.2146 186.3404 0001279  86.9239 273.1899 15.08835610 40471,6917.894,95.438,540.644,538.874,0.0
52666.0,STARLINK-4079,PAYLOAD,2023-02-04 09:48:05,15.08840906,0.0001446,53.2158,183.6668,75.8609,284.2544,5.848e-05,6.43e-06,0.0,0 STARLINK-4079,1 52666U 22053L   23035.40840261  .00000643  00000-0  58480-4 0  9997,2 52666  53.2158 183.6668 0001446  75.8609 284.2544 15.08840906 40564,6917.878,95.437,540.743,538.742,0.0
52666.0,STARLINK-4079,PAYLOAD,2023-02-04 14:34:15,15.08843231,0.0001457,53.2158,182.7756,72.8044,287.3108,7.8307e-05,9.59e-06,0.0,0 STARLINK-4079,1 52666U 22053L   23035.60712030  .00000959  00000-0  78307-4 0  9991,2 52666  53.2158 182.7756 0001457  72.8044 287.3108 15.08843231 40591,6917.871,95.437,540.743,538.728,0.0
52666.0,STARLINK-4079,PAYLOAD,2023-02-04 19:20:24,15.08846896,0.0001352,53.215,181.8817,78.3283,281.7861,9.9757e-05,1.3e-05,0.0,0 STARLINK-4079,1 52666U 22053L   23035.80583645  .00001300  00000-0  99757-4 0  9994,2 52666  53.2150 181.8817 0001352  78.3283 281.7861 15.08846896 40629,6917.859,95.437,540.66,538.789,0.0
52666.0,STARLINK-4079,PAYLOAD,2023-02-05 12:49:39,15.08833402,0.000142,53.2144,178.608,100.2738,259.8414,3.3818e-05,2.5e-06,0.0,0 STARLINK-4079,1 52666U 22053L   23036.53448750  .00000250  00000-0  33818-4 0  9991,2 52666  53.2144 178.6080 0001420 100.2738 259.8414 15.08833402 40735,6917.901,95.438,540.748,538.783,0.0
52666.0,STARLINK-4079,PAYLOAD,2023-02-05 14:25:03,15.08831885,0.0001284,53.2159,178.3144,82.8938,277.22,1.1162e-05,-1.1e-06,0.0,0 STARLINK-4079,1 52666U 22053L   23036.60073005 -.00000110  00000-0  11162-4 0  9990,2 52666  53.2159 178.3144 0001284  82.8938 277.2200 15.08831885 40745,6917.905,95.438,540.658,538.882,0.0
52666.0,STARLINK-4079,PAYLOAD,2023-02-05 19:11:12,15.08835741,0.0001219,53.2157,177.4205,96.3447,263.7684,2.2615e-05,7.2e-07,0.0,0 STARLINK-4079,1 52666U 22053L   23036.79944735  .00000072  00000-0  22615-4 0  9998,2 52666  53.2157 177.4205 0001219  96.3447 263.7684 15.08835741 40778,6917.893,95.438,540.602,538.915,0.0
52666.0,STARLINK-4079,PAYLOAD,2023-02-06 12:40:26,15.08846706,0.0001197,53.2159,174.1489,99.733,260.3797,6.6469e-06,-1.82e-06,0.0,0 STARLINK-4079,1 52666U 22053L   23037.52808236 -.00000182  00000-0  66469-5 0  9994,2 52666  53.2159 174.1489 0001197  99.7330 260.3797 15.08846706 40884,6917.86,95.437,540.553,538.897,0.0
52666.0,STARLINK-4079,PAYLOAD,2023-02-06 19:01:58,15.08854956,9.47e-05,53.2165,172.9599,101.0888,259.0211,7.1567e-05,8.52e-06,0.0,0 STARLINK-4079,1 52666U 22053L   23037.79303319  .00000852  00000-0  71567-4 0  9992,2 52666  53.2165 172.9599 0000947 101.0888 259.0211 15.08854956 40923,6917.835,95.437,540.355,539.045,0.0
52666.0,STARLINK-4079,PAYLOAD,2023-02-07 09:20:27,15.08830922,0.0001051,53.2168,170.2848,93.3145,266.7967,0.00012666,1.728e-05,0.0,0 STARLINK-4079,1 52666U 22053L   23038.38920820  .00001728  00000-0  12666-3 0  9997,2 52666  53.2168 170.2848 0001051  93.3145 266.7967 15.08830922 41011,6917.908,95.438,540.5,539.046,0.0
52666.0,STARLINK-4079,PAYLOAD,2023-02-07 14:06:35,15.08846507,0.0001256,53.2164,169.3912,111.079,249.0336,0.00019273,2.781e-05,0.0,0 STARLINK-4079,1 52666U 22053L   23038.58791651  .00002781  00000-0  19273-3 0  9998,2 52666  53.2164 169.3912 0001256 111.0790 249.0336 15.08846507 41042,6917.86,95.437,540.594,538.857,0.0
52666.0,STARLINK-4079,PAYLOAD,2023-02-08 10:46:27,15.09008526,0.0001525,53.2164,165.5261,135.0002,225.1114,0.00071488,0.0001116,0.0,0 STARLINK-4079,1 52666U 22053L   23039.44892857  .00011160  00000-0  71488-3 0  9991,2 52666  53.2164 165.5261 0001525 135.0002 225.1114 15.09008526 41173,6917.365,95.427,540.285,538.175,0.0
52666.0,STARLINK-4079,PAYLOAD,2023-02-08 13:57:23,15.08861169,0.0001547,53.2165,164.932,109.6609,250.455,-0.00021928,-3.778e-05,0.0,0 STARLINK-4079,1 52666U 22053L   23039.58151940 -.00003778  00000-0 -21928-3 0  9999,2 52666  53.2165 164.9320 0001547 109.6609 250.4550 15.08861169 41193,6917.816,95.436,540.751,538.61,0.0
52666.0,STARLINK-4079,PAYLOAD,2023-02-08 20:18:58,15.0882124,0.0001524,53.2163,163.7412,111.8556,248.2598,-0.00077029,-0.0001252,0.0,0 STARLINK-4079,1 52666U 22053L   23039.84651162 -.00012520  00000-0 -77029-3 0  9997,2 52666  53.2163 163.7412 0001524 111.8556 248.2598 15.08821240 41239,6917.938,95.439,540.857,538.748,0.0
52666.0,STARLINK-4079,PAYLOAD,2023-02-09 01:05:06,15.08830637,0.0001989,53.2164,162.8493,128.1816,231.9356,-0.0002411,-4.122e-05,0.0,0 STARLINK-4079,1 52666U 22053L   23040.04521759 -.00004122  00000-0 -24110-3 0  9991,2 52666  53.2164 162.8493 0001989 128.1816 231.9356 15.08830637 41268,6917.909,95.438,541.15,538.398,0.0
52666.0,STARLINK-4079,PAYLOAD,2023-02-09 07:26:39,15.08814193,0.000119,53.2166,161.6595,118.6105,241.5007,4.5964e-05,4.43e-06,0.0,0 STARLINK-4079,1 52666U 22053L   23040.31018498  .00000443  00000-0  45964-4 0  9993,2 52666  53.2166 161.6595 0001190 118.6105 241.5007 15.08814193 41303,6917.959,95.439,540.648,539.001,0.0
